{
"type": "FeatureCollection",
"name": "hsr_ward_boundary",
"crs": { "type": "name", "properties": { "name": "urn:ogc:def:crs:OGC:1.3:CRS84" } },
"features": [
{ "type": "Feature", "properties": { "OID_": 0, "Name": "Ward 174", "FolderPath": "BBMP Wards", "SymbolID": 21, "AltMode": 0, "Base": 0.0, "Clamped": -1, "Extruded": 0, "Snippet": null, "PopupInfo": "Ward Name: HSR Layout<br>Zone: Bommanahalli <br>Division: Bommanahalli<br>Subdivision: Bommanahalli<br>Assembly (MLA) Constituency : Bommanahalli<br>Parliament (MP) Constituency: Bangalore South", "Shape_Leng": 0.16257322725000001, "Shape_Area": 0.00058695748 }, "geometry": { "type": "Polygon", "coordinates": [ [ [ 77.654662, 12.897985, 0.0 ], [ 77.654014, 12.897941, 0.0 ], [ 77.653286, 12.897992, 0.0 ], [ 77.652773, 12.898063, 0.0 ], [ 77.652253, 12.898163, 0.0 ], [ 77.65163, 12.898279, 0.0 ], [ 77.651519, 12.898404, 0.0 ], [ 77.65116, 12.898919, 0.0 ], [ 77.65076, 12.899076, 0.0 ], [ 77.649975, 12.899434, 0.0 ], [ 77.649212, 12.899741, 0.0 ], [ 77.649138, 12.899742, 0.0 ], [ 77.648853, 12.899504, 0.0 ], [ 77.648694, 12.900002, 0.0 ], [ 77.648584, 12.900842, 0.0 ], [ 77.648576, 12.901528, 0.0 ], [ 77.648516, 12.902201, 0.0 ], [ 77.648559, 12.902755, 0.0 ], [ 77.648733, 12.90353, 0.0 ], [ 77.648794, 12.903822, 0.0 ], [ 77.648403, 12.90383, 0.0 ], [ 77.647996, 12.903838, 0.0 ], [ 77.64797, 12.903907, 0.0 ], [ 77.647598, 12.903929, 0.0 ], [ 77.647509, 12.903915, 0.0 ], [ 77.64751, 12.904021, 0.0 ], [ 77.647251, 12.9041, 0.0 ], [ 77.646896, 12.904206, 0.0 ], [ 77.646691, 12.904243, 0.0 ], [ 77.646347, 12.904284, 0.0 ], [ 77.646121, 12.90434, 0.0 ], [ 77.645815, 12.904415, 0.0 ], [ 77.645313, 12.904532, 0.0 ], [ 77.644785, 12.904653, 0.0 ], [ 77.644257, 12.904773, 0.0 ], [ 77.643787, 12.904865, 0.0 ], [ 77.643156, 12.905001, 0.0 ], [ 77.642408, 12.905225, 0.0 ], [ 77.641968, 12.905316, 0.0 ], [ 77.64163, 12.905377, 0.0 ], [ 77.641131, 12.905425, 0.0 ], [ 77.640632, 12.905503, 0.0 ], [ 77.640279, 12.905578, 0.0 ], [ 77.639619, 12.905672, 0.0 ], [ 77.639119, 12.905705, 0.0 ], [ 77.638943, 12.90575, 0.0 ], [ 77.638665, 12.905854, 0.0 ], [ 77.638108, 12.906076, 0.0 ], [ 77.63761, 12.906269, 0.0 ], [ 77.636981, 12.906549, 0.0 ], [ 77.636424, 12.906743, 0.0 ], [ 77.635795, 12.907066, 0.0 ], [ 77.635238, 12.90727, 0.0 ], [ 77.635116, 12.907314, 0.0 ], [ 77.634669, 12.907194, 0.0 ], [ 77.633935, 12.906983, 0.0 ], [ 77.633263, 12.906646, 0.0 ], [ 77.632594, 12.906622, 0.0 ], [ 77.632527, 12.906622, 0.0 ], [ 77.63255, 12.906047, 0.0 ], [ 77.632558, 12.905473, 0.0 ], [ 77.632468, 12.905013, 0.0 ], [ 77.632556, 12.904387, 0.0 ], [ 77.632378, 12.904124, 0.0 ], [ 77.632334, 12.904003, 0.0 ], [ 77.632314, 12.903938, 0.0 ], [ 77.632253, 12.903962, 0.0 ], [ 77.631962, 12.903904, 0.0 ], [ 77.631718, 12.903725, 0.0 ], [ 77.631004, 12.903641, 0.0 ], [ 77.630682, 12.904162, 0.0 ], [ 77.629762, 12.905667, 0.0 ], [ 77.629372, 12.906301, 0.0 ], [ 77.629014, 12.906884, 0.0 ], [ 77.628291, 12.908039, 0.0 ], [ 77.62756, 12.909243, 0.0 ], [ 77.626829, 12.910422, 0.0 ], [ 77.626102, 12.911614, 0.0 ], [ 77.625144, 12.913173, 0.0 ], [ 77.624458, 12.914266, 0.0 ], [ 77.624245, 12.914641, 0.0 ], [ 77.624023, 12.915024, 0.0 ], [ 77.62326, 12.916388, 0.0 ], [ 77.622772, 12.917246, 0.0 ], [ 77.62277, 12.917249, 0.0 ], [ 77.622741, 12.917306, 0.0 ], [ 77.622739, 12.917311, 0.0 ], [ 77.622725, 12.917337, 0.0 ], [ 77.622777, 12.917369, 0.0 ], [ 77.622812, 12.917306, 0.0 ], [ 77.62297, 12.917356, 0.0 ], [ 77.623387, 12.917434, 0.0 ], [ 77.623656, 12.917476, 0.0 ], [ 77.62398, 12.917537, 0.0 ], [ 77.624394, 12.917608, 0.0 ], [ 77.62458, 12.917637, 0.0 ], [ 77.624771, 12.917653, 0.0 ], [ 77.625071, 12.917665, 0.0 ], [ 77.625364, 12.917665, 0.0 ], [ 77.625576, 12.917654, 0.0 ], [ 77.625777, 12.917622, 0.0 ], [ 77.626084, 12.91754, 0.0 ], [ 77.626871, 12.917287, 0.0 ], [ 77.627671, 12.917055, 0.0 ], [ 77.628166, 12.916905, 0.0 ], [ 77.628332, 12.916861, 0.0 ], [ 77.628446, 12.916823, 0.0 ], [ 77.628529, 12.916804, 0.0 ], [ 77.628643, 12.916794, 0.0 ], [ 77.62896, 12.916769, 0.0 ], [ 77.629956, 12.916717, 0.0 ], [ 77.631152, 12.916654, 0.0 ], [ 77.631396, 12.916627, 0.0 ], [ 77.631929, 12.91657, 0.0 ], [ 77.632869, 12.916476, 0.0 ], [ 77.633602, 12.916408, 0.0 ], [ 77.634804, 12.916296, 0.0 ], [ 77.635993, 12.916184, 0.0 ], [ 77.636757, 12.916095, 0.0 ], [ 77.637472, 12.915988, 0.0 ], [ 77.637996, 12.915946, 0.0 ], [ 77.638125, 12.915945, 0.0 ], [ 77.638202, 12.915944, 0.0 ], [ 77.638214, 12.916458, 0.0 ], [ 77.638286, 12.917707, 0.0 ], [ 77.638344, 12.919315, 0.0 ], [ 77.638401, 12.919996, 0.0 ], [ 77.638468, 12.920341, 0.0 ], [ 77.638658, 12.920977, 0.0 ], [ 77.63869, 12.921099, 0.0 ], [ 77.638835, 12.921532, 0.0 ], [ 77.639055, 12.92196, 0.0 ], [ 77.639398, 12.922616, 0.0 ], [ 77.639782, 12.923459, 0.0 ], [ 77.639974, 12.923835, 0.0 ], [ 77.640458, 12.92367, 0.0 ], [ 77.640887, 12.923504, 0.0 ], [ 77.641109, 12.923419, 0.0 ], [ 77.641204, 12.923392, 0.0 ], [ 77.641278, 12.923386, 0.0 ], [ 77.641347, 12.92338, 0.0 ], [ 77.641437, 12.923389, 0.0 ], [ 77.641544, 12.923414, 0.0 ], [ 77.642129, 12.923586, 0.0 ], [ 77.642869, 12.923771, 0.0 ], [ 77.644046, 12.924097, 0.0 ], [ 77.644749, 12.92433, 0.0 ], [ 77.644919, 12.924385, 0.0 ], [ 77.645073, 12.92443, 0.0 ], [ 77.645212, 12.924455, 0.0 ], [ 77.645429, 12.924474, 0.0 ], [ 77.645658, 12.924476, 0.0 ], [ 77.645865, 12.924474, 0.0 ], [ 77.646311, 12.92448, 0.0 ], [ 77.64681, 12.924506, 0.0 ], [ 77.647516, 12.924583, 0.0 ], [ 77.648058, 12.924619, 0.0 ], [ 77.648558, 12.924661, 0.0 ], [ 77.649067, 12.924692, 0.0 ], [ 77.649322, 12.924689, 0.0 ], [ 77.649688, 12.924644, 0.0 ], [ 77.650048, 12.924557, 0.0 ], [ 77.65018, 12.924509, 0.0 ], [ 77.650286, 12.924471, 0.0 ], [ 77.650561, 12.924411, 0.0 ], [ 77.650868, 12.924361, 0.0 ], [ 77.651298, 12.924315, 0.0 ], [ 77.651494, 12.924282, 0.0 ], [ 77.651567, 12.924272, 0.0 ], [ 77.651624, 12.924264, 0.0 ], [ 77.65166, 12.92426, 0.0 ], [ 77.651698, 12.924253, 0.0 ], [ 77.651725, 12.924235, 0.0 ], [ 77.651743, 12.924206, 0.0 ], [ 77.651754, 12.924177, 0.0 ], [ 77.651748, 12.924048, 0.0 ], [ 77.651658, 12.92356, 0.0 ], [ 77.651599, 12.92327, 0.0 ], [ 77.65157, 12.923136, 0.0 ], [ 77.651551, 12.923034, 0.0 ], [ 77.651532, 12.922928, 0.0 ], [ 77.651519, 12.922838, 0.0 ], [ 77.651512, 12.922677, 0.0 ], [ 77.651523, 12.922355, 0.0 ], [ 77.651544, 12.92178, 0.0 ], [ 77.651557, 12.921323, 0.0 ], [ 77.651562, 12.921241, 0.0 ], [ 77.651565, 12.921203, 0.0 ], [ 77.651582, 12.92118, 0.0 ], [ 77.651615, 12.921159, 0.0 ], [ 77.651663, 12.921152, 0.0 ], [ 77.651934, 12.921126, 0.0 ], [ 77.652697, 12.921022, 0.0 ], [ 77.652972, 12.920996, 0.0 ], [ 77.653121, 12.920997, 0.0 ], [ 77.653261, 12.920999, 0.0 ], [ 77.653458, 12.920982, 0.0 ], [ 77.653577, 12.920966, 0.0 ], [ 77.653631, 12.920954, 0.0 ], [ 77.653661, 12.92093, 0.0 ], [ 77.653672, 12.920892, 0.0 ], [ 77.653675, 12.920854, 0.0 ], [ 77.653673, 12.920803, 0.0 ], [ 77.653672, 12.92077, 0.0 ], [ 77.653672, 12.920736, 0.0 ], [ 77.653672, 12.920719, 0.0 ], [ 77.653673, 12.920703, 0.0 ], [ 77.653675, 12.920688, 0.0 ], [ 77.653695, 12.920678, 0.0 ], [ 77.653708, 12.920671, 0.0 ], [ 77.653744, 12.920666, 0.0 ], [ 77.653794, 12.920663, 0.0 ], [ 77.654868, 12.920575, 0.0 ], [ 77.65687, 12.919114, 0.0 ], [ 77.660513, 12.916532, 0.0 ], [ 77.662209, 12.918314, 0.0 ], [ 77.662807, 12.920314, 0.0 ], [ 77.66284, 12.920956, 0.0 ], [ 77.662843, 12.921222, 0.0 ], [ 77.66212, 12.921414, 0.0 ], [ 77.661422, 12.921568, 0.0 ], [ 77.661336, 12.921586, 0.0 ], [ 77.661289, 12.9216, 0.0 ], [ 77.661268, 12.92162, 0.0 ], [ 77.661242, 12.92166, 0.0 ], [ 77.661218, 12.921697, 0.0 ], [ 77.661212, 12.921728, 0.0 ], [ 77.661282, 12.921908, 0.0 ], [ 77.661554, 12.922602, 0.0 ], [ 77.661564, 12.922628, 0.0 ], [ 77.661759, 12.923135, 0.0 ], [ 77.661975, 12.923863, 0.0 ], [ 77.662261, 12.924734, 0.0 ], [ 77.662497, 12.92569, 0.0 ], [ 77.662836, 12.926492, 0.0 ], [ 77.663277, 12.927534, 0.0 ], [ 77.663394, 12.927758, 0.0 ], [ 77.663486, 12.927859, 0.0 ], [ 77.663566, 12.927977, 0.0 ], [ 77.663588, 12.928107, 0.0 ], [ 77.66369, 12.928171, 0.0 ], [ 77.66396, 12.927984, 0.0 ], [ 77.664225, 12.927981, 0.0 ], [ 77.664533, 12.927978, 0.0 ], [ 77.664714, 12.927976, 0.0 ], [ 77.66485, 12.927984, 0.0 ], [ 77.664904, 12.928001, 0.0 ], [ 77.664986, 12.928044, 0.0 ], [ 77.665132, 12.92822, 0.0 ], [ 77.665299, 12.928547, 0.0 ], [ 77.665587, 12.929316, 0.0 ], [ 77.665773, 12.929819, 0.0 ], [ 77.665785, 12.930023, 0.0 ], [ 77.665796, 12.930073, 0.0 ], [ 77.665846, 12.930218, 0.0 ], [ 77.665896, 12.930303, 0.0 ], [ 77.665922, 12.930338, 0.0 ], [ 77.665937, 12.930388, 0.0 ], [ 77.666036, 12.930563, 0.0 ], [ 77.666092, 12.930695, 0.0 ], [ 77.666167, 12.930748, 0.0 ], [ 77.666276, 12.930813, 0.0 ], [ 77.666447, 12.93089, 0.0 ], [ 77.66666, 12.930967, 0.0 ], [ 77.667033, 12.931056, 0.0 ], [ 77.667488, 12.931065, 0.0 ], [ 77.668043, 12.931014, 0.0 ], [ 77.668355, 12.931022, 0.0 ], [ 77.668756, 12.931041, 0.0 ], [ 77.668867, 12.931045, 0.0 ], [ 77.669116, 12.930998, 0.0 ], [ 77.669273, 12.930953, 0.0 ], [ 77.669257, 12.93023, 0.0 ], [ 77.669308, 12.929813, 0.0 ], [ 77.669302, 12.929793, 0.0 ], [ 77.669322, 12.928883, 0.0 ], [ 77.66935, 12.928831, 0.0 ], [ 77.66933, 12.928568, 0.0 ], [ 77.669271, 12.927415, 0.0 ], [ 77.669276, 12.927323, 0.0 ], [ 77.669275, 12.927277, 0.0 ], [ 77.66931, 12.927225, 0.0 ], [ 77.668109, 12.924334, 0.0 ], [ 77.667693, 12.923794, 0.0 ], [ 77.667068, 12.922807, 0.0 ], [ 77.666215, 12.922035, 0.0 ], [ 77.664855, 12.920673, 0.0 ], [ 77.664173, 12.919773, 0.0 ], [ 77.663141, 12.918069, 0.0 ], [ 77.662722, 12.918039, 0.0 ], [ 77.662001, 12.916024, 0.0 ], [ 77.661231, 12.915895, 0.0 ], [ 77.661193, 12.915587, 0.0 ], [ 77.661188, 12.915141, 0.0 ], [ 77.660931, 12.913978, 0.0 ], [ 77.660171, 12.911518, 0.0 ], [ 77.657025, 12.911447, 0.0 ], [ 77.655574, 12.906388, 0.0 ], [ 77.654775, 12.903482, 0.0 ], [ 77.654806, 12.903139, 0.0 ], [ 77.655046, 12.902759, 0.0 ], [ 77.655944, 12.901688, 0.0 ], [ 77.656041, 12.901601, 0.0 ], [ 77.656387, 12.9012, 0.0 ], [ 77.656758, 12.900912, 0.0 ], [ 77.657063, 12.900739, 0.0 ], [ 77.657177, 12.900426, 0.0 ], [ 77.657071, 12.900248, 0.0 ], [ 77.657016, 12.899713, 0.0 ], [ 77.656821, 12.899496, 0.0 ], [ 77.656607, 12.899746, 0.0 ], [ 77.656436, 12.899748, 0.0 ], [ 77.65625, 12.899735, 0.0 ], [ 77.656027, 12.899694, 0.0 ], [ 77.655861, 12.899557, 0.0 ], [ 77.655783, 12.899193, 0.0 ], [ 77.655905, 12.898717, 0.0 ], [ 77.655871, 12.898382, 0.0 ], [ 77.65584, 12.898192, 0.0 ], [ 77.655499, 12.898356, 0.0 ], [ 77.655365, 12.898372, 0.0 ], [ 77.655216, 12.898345, 0.0 ], [ 77.65465, 12.898263, 0.0 ], [ 77.654662, 12.897985, 0.0 ] ] ] } }
]
}
