{
"type": "FeatureCollection",
"name": "open_spaces",
"crs": { "type": "name", "properties": { "name": "urn:ogc:def:crs:OGC:1.3:CRS84" } },
"features": [
{ "type": "Feature", "properties": { "area_sqm": 324.389985356728, "type": "water", "dump_risk": "medium", "nearest_dump_m": 157.28813244240649 }, "geometry": { "type": "Point", "coordinates": [ 77.668081296566854, 12.9295567170933 ] } },
{ "type": "Feature", "properties": { "area_sqm": 449.15536434008493, "type": "water", "dump_risk": "medium", "nearest_dump_m": 95.084085763556502 }, "geometry": { "type": "Point", "coordinates": [ 77.665663829574171, 12.924300395129592 ] } },
{ "type": "Feature", "properties": { "area_sqm": 163093.30340704418, "type": "green", "dump_risk": "medium", "nearest_dump_m": 64.790084385722309 }, "geometry": { "type": "Point", "coordinates": [ 77.641537740582422, 12.921254393579542 ] } },
{ "type": "Feature", "properties": { "area_sqm": 449.15536434008493, "type": "green", "dump_risk": "medium", "nearest_dump_m": 497.27928317802673 }, "geometry": { "type": "Point", "coordinates": [ 77.644952646011873, 12.923450436684396 ] } },
{ "type": "Feature", "properties": { "area_sqm": 324.389985356728, "type": "green", "dump_risk": "medium", "nearest_dump_m": 304.59399196481502 }, "geometry": { "type": "Point", "coordinates": [ 77.640466385150461, 12.923249130736849 ] } },
{ "type": "Feature", "properties": { "area_sqm": 648.77997071345601, "type": "water", "dump_risk": "low", "nearest_dump_m": 546.28728727973612 }, "geometry": { "type": "Point", "coordinates": [ 77.645823434788085, 12.922901576878692 ] } },
{ "type": "Feature", "properties": { "area_sqm": 923.26380447684119, "type": "green", "dump_risk": "medium", "nearest_dump_m": 461.31217351341616 }, "geometry": { "type": "Point", "coordinates": [ 77.64504751023118, 12.922729241502946 ] } },
{ "type": "Feature", "properties": { "area_sqm": 773.54534969681299, "type": "green", "dump_risk": "medium", "nearest_dump_m": 355.54156832169258 }, "geometry": { "type": "Point", "coordinates": [ 77.644227555881002, 12.922243322525812 ] } },
{ "type": "Feature", "properties": { "area_sqm": 324.389985356728, "type": "green", "dump_risk": "medium", "nearest_dump_m": 156.34353660151041 }, "geometry": { "type": "Point", "coordinates": [ 77.642604913643979, 12.921459744536438 ] } },
{ "type": "Feature", "properties": { "area_sqm": 3243.8998535672799, "type": "green", "dump_risk": "medium", "nearest_dump_m": 234.66589327000989 }, "geometry": { "type": "Point", "coordinates": [ 77.643477848100957, 12.921211983370227 ] } },
{ "type": "Feature", "properties": { "area_sqm": 4391.7413402141638, "type": "green", "dump_risk": "medium", "nearest_dump_m": 156.52940057763411 }, "geometry": { "type": "Point", "coordinates": [ 77.642841324587877, 12.920718318464479 ] } },
{ "type": "Feature", "properties": { "area_sqm": 923.26380447684119, "type": "green", "dump_risk": "medium", "nearest_dump_m": 198.34221287062158 }, "geometry": { "type": "Point", "coordinates": [ 77.643216819270506, 12.920758498593033 ] } },
{ "type": "Feature", "properties": { "area_sqm": 324.389985356728, "type": "water", "dump_risk": "medium", "nearest_dump_m": 238.90152349509742 }, "geometry": { "type": "Point", "coordinates": [ 77.643581198391033, 12.920788724711285 ] } },
{ "type": "Feature", "properties": { "area_sqm": 324.389985356728, "type": "water", "dump_risk": "medium", "nearest_dump_m": 195.80618309973474 }, "geometry": { "type": "Point", "coordinates": [ 77.643162790642293, 12.920341378161181 ] } },
{ "type": "Feature", "properties": { "area_sqm": 1197.7476382402265, "type": "water", "dump_risk": "medium", "nearest_dump_m": 188.59302807827714 }, "geometry": { "type": "Point", "coordinates": [ 77.6429652092054, 12.919949017957862 ] } },
{ "type": "Feature", "properties": { "area_sqm": 524.01459173009903, "type": "water", "dump_risk": "medium", "nearest_dump_m": 455.67901056884494 }, "geometry": { "type": "Point", "coordinates": [ 77.663558508044829, 12.91995154759609 ] } },
{ "type": "Feature", "properties": { "area_sqm": 324.389985356728, "type": "water", "dump_risk": "medium", "nearest_dump_m": 175.78699794616415 }, "geometry": { "type": "Point", "coordinates": [ 77.642651403393842, 12.919670358336028 ] } },
{ "type": "Feature", "properties": { "area_sqm": 748.59227390014155, "type": "water", "dump_risk": "medium", "nearest_dump_m": 214.5855739274356 }, "geometry": { "type": "Point", "coordinates": [ 77.656249655227668, 12.919299060699441 ] } },
{ "type": "Feature", "properties": { "area_sqm": 449.15536434008493, "type": "green", "dump_risk": "medium", "nearest_dump_m": 188.45610853500938 }, "geometry": { "type": "Point", "coordinates": [ 77.641884322521165, 12.919044073165882 ] } },
{ "type": "Feature", "properties": { "area_sqm": 324.389985356728, "type": "water", "dump_risk": "medium", "nearest_dump_m": 170.17757254947105 }, "geometry": { "type": "Point", "coordinates": [ 77.656365879602319, 12.918865134545841 ] } },
{ "type": "Feature", "properties": { "area_sqm": 449.15536434008493, "type": "water", "dump_risk": "medium", "nearest_dump_m": 175.98215588171425 }, "geometry": { "type": "Point", "coordinates": [ 77.656830777100907, 12.918708563253306 ] } },
{ "type": "Feature", "properties": { "area_sqm": 1596.9968509869686, "type": "water", "dump_risk": "medium", "nearest_dump_m": 188.73465607862678 }, "geometry": { "type": "Point", "coordinates": [ 77.657146035717147, 12.918599522531718 ] } },
{ "type": "Feature", "properties": { "area_sqm": 1272.6068656302407, "type": "water", "dump_risk": "medium", "nearest_dump_m": 330.03733507920089 }, "geometry": { "type": "Point", "coordinates": [ 77.641004207746874, 12.917737996669603 ] } },
{ "type": "Feature", "properties": { "area_sqm": 2994.3690956005662, "type": "green", "dump_risk": "medium", "nearest_dump_m": 416.06585881298093 }, "geometry": { "type": "Point", "coordinates": [ 77.639382011734995, 12.917542107123912 ] } },
{ "type": "Feature", "properties": { "area_sqm": 773.54534969681299, "type": "water", "dump_risk": "medium", "nearest_dump_m": 46.417980960790281 }, "geometry": { "type": "Point", "coordinates": [ 77.656341884892711, 12.917540411536182 ] } },
{ "type": "Feature", "properties": { "area_sqm": 2320.636049090439, "type": "water", "dump_risk": "medium", "nearest_dump_m": 428.32783176304497 }, "geometry": { "type": "Point", "coordinates": [ 77.640210441581345, 12.917019950281116 ] } },
{ "type": "Feature", "properties": { "area_sqm": 324.389985356728, "type": "water", "dump_risk": "medium", "nearest_dump_m": 433.00868255121645 }, "geometry": { "type": "Point", "coordinates": [ 77.648927519624849, 12.916628401795327 ] } },
{ "type": "Feature", "properties": { "area_sqm": 324.389985356728, "type": "water", "dump_risk": "medium", "nearest_dump_m": 242.10851952605523 }, "geometry": { "type": "Point", "coordinates": [ 77.656365879602319, 12.913765383874669 ] } },
{ "type": "Feature", "properties": { "area_sqm": 324.389985356728, "type": "water", "dump_risk": "medium", "nearest_dump_m": 136.25799861868191 }, "geometry": { "type": "Point", "coordinates": [ 77.658411428596125, 12.912199670949308 ] } },
{ "type": "Feature", "properties": { "area_sqm": 324.389985356728, "type": "water", "dump_risk": "medium", "nearest_dump_m": 163.75556317497347 }, "geometry": { "type": "Point", "coordinates": [ 77.653808943360062, 12.911439181814133 ] } },
{ "type": "Feature", "properties": { "area_sqm": 324.389985356728, "type": "water", "dump_risk": "medium", "nearest_dump_m": 179.68693843866478 }, "geometry": { "type": "Point", "coordinates": [ 77.655203635855841, 12.909873468888774 ] } },
{ "type": "Feature", "properties": { "area_sqm": 324.389985356728, "type": "water", "dump_risk": "low", "nearest_dump_m": 533.29162147996317 }, "geometry": { "type": "Point", "coordinates": [ 77.636421776912712, 12.9078156747583 ] } },
{ "type": "Feature", "properties": { "area_sqm": 324.389985356728, "type": "water", "dump_risk": "medium", "nearest_dump_m": 226.09389564734585 }, "geometry": { "type": "Point", "coordinates": [ 77.653251066361747, 12.902089638916983 ] } },
{ "type": "Feature", "properties": { "area_sqm": 748.59227390014155, "type": "water", "dump_risk": "medium", "nearest_dump_m": 121.69355981198834 }, "geometry": { "type": "Point", "coordinates": [ 77.654441203958143, 12.901758602469908 ] } },
{ "type": "Feature", "properties": { "area_sqm": 823.45150129015565, "type": "water", "dump_risk": "medium", "nearest_dump_m": 137.30288408167161 }, "geometry": { "type": "Point", "coordinates": [ 77.653982223336811, 12.901678893448253 ] } },
{ "type": "Feature", "properties": { "area_sqm": 324.389985356728, "type": "water", "dump_risk": "medium", "nearest_dump_m": 55.639435691359132 }, "geometry": { "type": "Point", "coordinates": [ 77.654320330608513, 12.900971272541726 ] } }
]
}
