{
  "type": "FeatureCollection",
  "features": [
    {
      "type": "Feature",
      "geometry": {
        "type": "Point",
        "coordinates": [
          77.64548489962286,
          12.91479373407805
        ]
      },
      "properties": {
        "id": "DUMP-001",
        "lat": 12.91479373407805,
        "lon": 77.64548489962286,
        "risk": "high",
        "area_sqm": 165339.0802287446,
        "pixel_count": 6626,
        "detected": "satellite",
        "ward": "HSR Layout"
      }
    },
    {
      "type": "Feature",
      "geometry": {
        "type": "Point",
        "coordinates": [
          77.66496186264122,
          12.923809448170292
        ]
      },
      "properties": {
        "id": "DUMP-002",
        "lat": 12.923809448170292,
        "lon": 77.66496186264122,
        "risk": "high",
        "area_sqm": 12301.866367758992,
        "pixel_count": 493,
        "detected": "satellite",
        "ward": "HSR Layout"
      }
    },
    {
      "type": "Feature",
      "geometry": {
        "type": "Point",
        "coordinates": [
          77.66825674280882,
          12.92815061022351
        ]
      },
      "properties": {
        "id": "DUMP-003",
        "lat": 12.92815061022351,
        "lon": 77.66825674280882,
        "risk": "high",
        "area_sqm": 4965.662083537605,
        "pixel_count": 199,
        "detected": "satellite",
        "ward": "HSR Layout"
      }
    },
    {
      "type": "Feature",
      "geometry": {
        "type": "Point",
        "coordinates": [
          77.62907498765462,
          12.909191604298773
        ]
      },
      "properties": {
        "id": "DUMP-004",
        "lat": 12.909191604298773,
        "lon": 77.62907498765462,
        "risk": "high",
        "area_sqm": 823.4515012901556,
        "pixel_count": 33,
        "detected": "satellite",
        "ward": "HSR Layout"
      }
    },
    {
      "type": "Feature",
      "geometry": {
        "type": "Point",
        "coordinates": [
          77.63217054756447,
          12.90463951425257
        ]
      },
      "properties": {
        "id": "DUMP-005",
        "lat": 12.90463951425257,
        "lon": 77.63217054756447,
        "risk": "medium",
        "area_sqm": 224.57768217004246,
        "pixel_count": 9,
        "detected": "satellite",
        "ward": "HSR Layout"
      }
    },
    {
      "type": "Feature",
      "geometry": {
        "type": "Point",
        "coordinates": [
          77.62563034372663,
          12.913536118767743
        ]
      },
      "properties": {
        "id": "DUMP-006",
        "lat": 12.913536118767743,
        "lon": 77.62563034372663,
        "risk": "low",
        "area_sqm": 199.62460637337108,
        "pixel_count": 8,
        "detected": "satellite",
        "ward": "HSR Layout"
      }
    },
    {
      "type": "Feature",
      "geometry": {
        "type": "Point",
        "coordinates": [
          77.62993313611094,
          12.910276080783868
        ]
      },
      "properties": {
        "id": "DUMP-007",
        "lat": 12.910276080783868,
        "lon": 77.62993313611094,
        "risk": "low",
        "area_sqm": 174.6715305766997,
        "pixel_count": 7,
        "detected": "satellite",
        "ward": "HSR Layout"
      }
    },
    {
      "type": "Feature",
      "geometry": {
        "type": "Point",
        "coordinates": [
          77.65474516779067,
          12.900705244114594
        ]
      },
      "properties": {
        "id": "DUMP-008",
        "lat": 12.900705244114594,
        "lon": 77.65474516779067,
        "risk": "high",
        "area_sqm": 4691.178249774221,
        "pixel_count": 188,
        "detected": "satellite",
        "ward": "HSR Layout"
      }
    },
    {
      "type": "Feature",
      "geometry": {
        "type": "Point",
        "coordinates": [
          77.65071908777468,
          12.900863909369702
        ]
      },
      "properties": {
        "id": "DUMP-009",
        "lat": 12.900863909369702,
        "lon": 77.65071908777468,
        "risk": "high",
        "area_sqm": 2370.5422006837816,
        "pixel_count": 95,
        "detected": "satellite",
        "ward": "HSR Layout"
      }
    },
    {
      "type": "Feature",
      "geometry": {
        "type": "Point",
        "coordinates": [
          77.64311630089243,
          12.907577089931578
        ]
      },
      "properties": {
        "id": "DUMP-010",
        "lat": 12.907577089931578,
        "lon": 77.64311630089243,
        "risk": "low",
        "area_sqm": 74.85922739001415,
        "pixel_count": 3,
        "detected": "satellite",
        "ward": "HSR Layout"
      }
    },
    {
      "type": "Feature",
      "geometry": {
        "type": "Point",
        "coordinates": [
          77.62749574493972,
          12.91236369801768
        ]
      },
      "properties": {
        "id": "DUMP-011",
        "lat": 12.91236369801768,
        "lon": 77.62749574493972,
        "risk": "low",
        "area_sqm": 74.85922739001415,
        "pixel_count": 3,
        "detected": "satellite",
        "ward": "HSR Layout"
      }
    },
    {
      "type": "Feature",
      "geometry": {
        "type": "Point",
        "coordinates": [
          77.64143165916727,
          12.920680419757053
        ]
      },
      "properties": {
        "id": "DUMP-012",
        "lat": 12.920680419757053,
        "lon": 77.64143165916727,
        "risk": "high",
        "area_sqm": 1896.4337605470253,
        "pixel_count": 76,
        "detected": "satellite",
        "ward": "HSR Layout"
      }
    },
    {
      "type": "Feature",
      "geometry": {
        "type": "Point",
        "coordinates": [
          77.64671150821488,
          12.905385091836074
        ]
      },
      "properties": {
        "id": "DUMP-013",
        "lat": 12.905385091836074,
        "lon": 77.64671150821488,
        "risk": "medium",
        "area_sqm": 224.57768217004246,
        "pixel_count": 9,
        "detected": "satellite",
        "ward": "HSR Layout"
      }
    },
    {
      "type": "Feature",
      "geometry": {
        "type": "Point",
        "coordinates": [
          77.62924303501885,
          12.911992264821532
        ]
      },
      "properties": {
        "id": "DUMP-014",
        "lat": 12.911992264821532,
        "lon": 77.62924303501885,
        "risk": "high",
        "area_sqm": 1921.3868363436966,
        "pixel_count": 77,
        "detected": "satellite",
        "ward": "HSR Layout"
      }
    },
    {
      "type": "Feature",
      "geometry": {
        "type": "Point",
        "coordinates": [
          77.63901745461318,
          12.911858569204858
        ]
      },
      "properties": {
        "id": "DUMP-015",
        "lat": 12.911858569204858,
        "lon": 77.63901745461318,
        "risk": "high",
        "area_sqm": 598.8738191201132,
        "pixel_count": 24,
        "detected": "satellite",
        "ward": "HSR Layout"
      }
    },
    {
      "type": "Feature",
      "geometry": {
        "type": "Point",
        "coordinates": [
          77.65873685684515,
          12.91577844335013
        ]
      },
      "properties": {
        "id": "DUMP-016",
        "lat": 12.91577844335013,
        "lon": 77.65873685684515,
        "risk": "low",
        "area_sqm": 74.85922739001415,
        "pixel_count": 3,
        "detected": "satellite",
        "ward": "HSR Layout"
      }
    },
    {
      "type": "Feature",
      "geometry": {
        "type": "Point",
        "coordinates": [
          77.65595212082857,
          12.917388890930502
        ]
      },
      "properties": {
        "id": "DUMP-017",
        "lat": 12.917388890930502,
        "lon": 77.65595212082857,
        "risk": "medium",
        "area_sqm": 249.53075796671385,
        "pixel_count": 10,
        "detected": "satellite",
        "ward": "HSR Layout"
      }
    },
    {
      "type": "Feature",
      "geometry": {
        "type": "Point",
        "coordinates": [
          77.62942174886247,
          12.907227733578164
        ]
      },
      "properties": {
        "id": "DUMP-018",
        "lat": 12.907227733578164,
        "lon": 77.62942174886247,
        "risk": "low",
        "area_sqm": 174.6715305766997,
        "pixel_count": 7,
        "detected": "satellite",
        "ward": "HSR Layout"
      }
    },
    {
      "type": "Feature",
      "geometry": {
        "type": "Point",
        "coordinates": [
          77.65324380233834,
          12.898879927419994
        ]
      },
      "properties": {
        "id": "DUMP-019",
        "lat": 12.898879927419994,
        "lon": 77.65324380233834,
        "risk": "high",
        "area_sqm": 798.4984254934843,
        "pixel_count": 32,
        "detected": "satellite",
        "ward": "HSR Layout"
      }
    },
    {
      "type": "Feature",
      "geometry": {
        "type": "Point",
        "coordinates": [
          77.65528333256988,
          12.911490307134144
        ]
      },
      "properties": {
        "id": "DUMP-020",
        "lat": 12.911490307134144,
        "lon": 77.65528333256988,
        "risk": "low",
        "area_sqm": 174.6715305766997,
        "pixel_count": 7,
        "detected": "satellite",
        "ward": "HSR Layout"
      }
    },
    {
      "type": "Feature",
      "geometry": {
        "type": "Point",
        "coordinates": [
          77.65098236656863,
          12.906947822451102
        ]
      },
      "properties": {
        "id": "DUMP-021",
        "lat": 12.906947822451102,
        "lon": 77.65098236656863,
        "risk": "low",
        "area_sqm": 124.76537898335692,
        "pixel_count": 5,
        "detected": "satellite",
        "ward": "HSR Layout"
      }
    },
    {
      "type": "Feature",
      "geometry": {
        "type": "Point",
        "coordinates": [
          77.63090499326275,
          12.910619046472277
        ]
      },
      "properties": {
        "id": "DUMP-022",
        "lat": 12.910619046472277,
        "lon": 77.63090499326275,
        "risk": "low",
        "area_sqm": 74.85922739001415,
        "pixel_count": 3,
        "detected": "satellite",
        "ward": "HSR Layout"
      }
    },
    {
      "type": "Feature",
      "geometry": {
        "type": "Point",
        "coordinates": [
          77.62710058206594,
          12.91168522241669
        ]
      },
      "properties": {
        "id": "DUMP-023",
        "lat": 12.91168522241669,
        "lon": 77.62710058206594,
        "risk": "low",
        "area_sqm": 99.81230318668554,
        "pixel_count": 4,
        "detected": "satellite",
        "ward": "HSR Layout"
      }
    },
    {
      "type": "Feature",
      "geometry": {
        "type": "Point",
        "coordinates": [
          77.63167052447709,
          12.910571329506933
        ]
      },
      "properties": {
        "id": "DUMP-024",
        "lat": 12.910571329506933,
        "lon": 77.63167052447709,
        "risk": "low",
        "area_sqm": 124.76537898335692,
        "pixel_count": 5,
        "detected": "satellite",
        "ward": "HSR Layout"
      }
    },
    {
      "type": "Feature",
      "geometry": {
        "type": "Point",
        "coordinates": [
          77.64204703664568,
          12.911372079831617
        ]
      },
      "properties": {
        "id": "DUMP-025",
        "lat": 12.911372079831617,
        "lon": 77.64204703664568,
        "risk": "low",
        "area_sqm": 149.7184547800283,
        "pixel_count": 6,
        "detected": "satellite",
        "ward": "HSR Layout"
      }
    },
    {
      "type": "Feature",
      "geometry": {
        "type": "Point",
        "coordinates": [
          77.64952026393556,
          12.899852906166469
        ]
      },
      "properties": {
        "id": "DUMP-026",
        "lat": 12.899852906166469,
        "lon": 77.64952026393556,
        "risk": "low",
        "area_sqm": 99.81230318668554,
        "pixel_count": 4,
        "detected": "satellite",
        "ward": "HSR Layout"
      }
    },
    {
      "type": "Feature",
      "geometry": {
        "type": "Point",
        "coordinates": [
          77.65851990467912,
          12.913422418186256
        ]
      },
      "properties": {
        "id": "DUMP-027",
        "lat": 12.913422418186256,
        "lon": 77.65851990467912,
        "risk": "low",
        "area_sqm": 74.85922739001415,
        "pixel_count": 3,
        "detected": "satellite",
        "ward": "HSR Layout"
      }
    },
    {
      "type": "Feature",
      "geometry": {
        "type": "Point",
        "coordinates": [
          77.63006430361946,
          12.907860409413312
        ]
      },
      "properties": {
        "id": "DUMP-028",
        "lat": 12.907860409413312,
        "lon": 77.63006430361946,
        "risk": "low",
        "area_sqm": 99.81230318668554,
        "pixel_count": 4,
        "detected": "satellite",
        "ward": "HSR Layout"
      }
    },
    {
      "type": "Feature",
      "geometry": {
        "type": "Point",
        "coordinates": [
          77.6306260547636,
          12.91376538387467
        ]
      },
      "properties": {
        "id": "DUMP-029",
        "lat": 12.91376538387467,
        "lon": 77.6306260547636,
        "risk": "low",
        "area_sqm": 74.85922739001415,
        "pixel_count": 3,
        "detected": "satellite",
        "ward": "HSR Layout"
      }
    }
  ]
}