{
"type": "FeatureCollection",
"name": "ward_grid_zones",
"crs": { "type": "name", "properties": { "name": "urn:ogc:def:crs:OGC:1.3:CRS84" } },
"features": [
{ "type": "Feature", "properties": { "zone_id": "Z01", "population": 689, "waste_total_tons": 0.344, "waste_wet_tons": 0.21, "waste_dry_tons": 0.103, "waste_hazardous_tons": 0.017, "risk": "Low", "total_buildings": 164, "collection_vehicle": "auto_rickshaw", "assigned_dwcc": "DWCC_05" }, "geometry": { "type": "Polygon", "coordinates": [ [ [ 77.627271600332705, 12.911762338773674 ], [ 77.627318819501824, 12.916278945381215 ], [ 77.622714438479434, 12.916325232790101 ], [ 77.622667301830504, 12.911808609456546 ], [ 77.627271600332705, 12.911762338773674 ] ] ] } },
{ "type": "Feature", "properties": { "zone_id": "Z02", "population": 152, "waste_total_tons": 0.076, "waste_wet_tons": 0.046, "waste_dry_tons": 0.023, "waste_hazardous_tons": 0.004, "risk": "Low", "total_buildings": 38, "collection_vehicle": "auto_rickshaw", "assigned_dwcc": "DWCC_01" }, "geometry": { "type": "Polygon", "coordinates": [ [ [ 77.627318819501824, 12.916278945381215 ], [ 77.627366056601815, 12.920795550260575 ], [ 77.622761593027946, 12.920841854396048 ], [ 77.622714438479434, 12.916325232790101 ], [ 77.627318819501824, 12.916278945381215 ] ] ] } },
{ "type": "Feature", "properties": { "zone_id": "Z03", "population": 624, "waste_total_tons": 0.312, "waste_wet_tons": 0.19, "waste_dry_tons": 0.094, "waste_hazardous_tons": 0.016, "risk": "Low", "total_buildings": 156, "collection_vehicle": "auto_rickshaw", "assigned_dwcc": "DWCC_05" }, "geometry": { "type": "Polygon", "coordinates": [ [ [ 77.631781331410536, 12.902682802260985 ], [ 77.631828597178497, 12.907199395569064 ], [ 77.627224399092938, 12.90724573043852 ], [ 77.627177215780975, 12.902729120376328 ], [ 77.631781331410536, 12.902682802260985 ] ] ] } },
{ "type": "Feature", "properties": { "zone_id": "Z04", "population": 1934, "waste_total_tons": 0.967, "waste_wet_tons": 0.59, "waste_dry_tons": 0.29, "waste_hazardous_tons": 0.048, "risk": "Medium", "total_buildings": 477, "collection_vehicle": "auto_rickshaw", "assigned_dwcc": "DWCC_05" }, "geometry": { "type": "Polygon", "coordinates": [ [ [ 77.631828597178497, 12.907199395569064 ], [ 77.631875880905568, 12.911715987149533 ], [ 77.627271600332705, 12.911762338773674 ], [ 77.627224399092938, 12.90724573043852 ], [ 77.631828597178497, 12.907199395569064 ] ] ] } },
{ "type": "Feature", "properties": { "zone_id": "Z05", "population": 1702, "waste_total_tons": 0.851, "waste_wet_tons": 0.519, "waste_dry_tons": 0.255, "waste_hazardous_tons": 0.043, "risk": "Medium", "total_buildings": 374, "collection_vehicle": "auto_rickshaw", "assigned_dwcc": "DWCC_05" }, "geometry": { "type": "Polygon", "coordinates": [ [ [ 77.631875880905568, 12.911715987149533 ], [ 77.631923182593312, 12.916232577001811 ], [ 77.627318819501824, 12.916278945381215 ], [ 77.627271600332705, 12.911762338773674 ], [ 77.631875880905568, 12.911715987149533 ] ] ] } },
{ "type": "Feature", "properties": { "zone_id": "Z06", "population": 28, "waste_total_tons": 0.014, "waste_wet_tons": 0.009, "waste_dry_tons": 0.004, "waste_hazardous_tons": 0.001, "risk": "Low", "total_buildings": 7, "collection_vehicle": "auto_rickshaw", "assigned_dwcc": "DWCC_02" }, "geometry": { "type": "Polygon", "coordinates": [ [ [ 77.631923182593312, 12.916232577001811 ], [ 77.631970502243263, 12.920749165125329 ], [ 77.627366056601815, 12.920795550260575 ], [ 77.627318819501824, 12.916278945381215 ], [ 77.631923182593312, 12.916232577001811 ] ] ] } },
{ "type": "Feature", "properties": { "zone_id": "Z07", "population": 280, "waste_total_tons": 0.14, "waste_wet_tons": 0.085, "waste_dry_tons": 0.042, "waste_hazardous_tons": 0.007, "risk": "Low", "total_buildings": 71, "collection_vehicle": "auto_rickshaw", "assigned_dwcc": "DWCC_05" }, "geometry": { "type": "Polygon", "coordinates": [ [ [ 77.636385429082523, 12.902636403264346 ], [ 77.636432777304918, 12.907152979789068 ], [ 77.631828597178497, 12.907199395569064 ], [ 77.631781331410536, 12.902682802260985 ], [ 77.636385429082523, 12.902636403264346 ] ] ] } },
{ "type": "Feature", "properties": { "zone_id": "Z08", "population": 2502, "waste_total_tons": 1.251, "waste_wet_tons": 0.763, "waste_dry_tons": 0.375, "waste_hazardous_tons": 0.063, "risk": "High", "total_buildings": 581, "collection_vehicle": "auto_rickshaw", "assigned_dwcc": "DWCC_05" }, "geometry": { "type": "Polygon", "coordinates": [ [ [ 77.636432777304918, 12.907152979789068 ], [ 77.636480143517758, 12.911669554585597 ], [ 77.631875880905568, 12.911715987149533 ], [ 77.631828597178497, 12.907199395569064 ], [ 77.636432777304918, 12.907152979789068 ] ] ] } },
{ "type": "Feature", "properties": { "zone_id": "Z09", "population": 1692, "waste_total_tons": 0.846, "waste_wet_tons": 0.516, "waste_dry_tons": 0.254, "waste_hazardous_tons": 0.042, "risk": "Medium", "total_buildings": 364, "collection_vehicle": "auto_rickshaw", "assigned_dwcc": "DWCC_05" }, "geometry": { "type": "Polygon", "coordinates": [ [ [ 77.636480143517758, 12.911669554585597 ], [ 77.636527527722592, 12.916186127653356 ], [ 77.631923182593312, 12.916232577001811 ], [ 77.631875880905568, 12.911715987149533 ], [ 77.636480143517758, 12.911669554585597 ] ] ] } },
{ "type": "Feature", "properties": { "zone_id": "Z10", "population": 810, "waste_total_tons": 0.405, "waste_wet_tons": 0.247, "waste_dry_tons": 0.121, "waste_hazardous_tons": 0.02, "risk": "Low", "total_buildings": 196, "collection_vehicle": "auto_rickshaw", "assigned_dwcc": "DWCC_05" }, "geometry": { "type": "Polygon", "coordinates": [ [ [ 77.640989508765614, 12.902589923387881 ], [ 77.641036939440909, 12.907106483099991 ], [ 77.636432777304918, 12.907152979789068 ], [ 77.636385429082523, 12.902636403264346 ], [ 77.640989508765614, 12.902589923387881 ] ] ] } },
{ "type": "Feature", "properties": { "zone_id": "Z11", "population": 2240, "waste_total_tons": 1.12, "waste_wet_tons": 0.683, "waste_dry_tons": 0.336, "waste_hazardous_tons": 0.056, "risk": "High", "total_buildings": 546, "collection_vehicle": "auto_rickshaw", "assigned_dwcc": "DWCC_05" }, "geometry": { "type": "Polygon", "coordinates": [ [ [ 77.641036939440909, 12.907106483099991 ], [ 77.641084388137983, 12.911623041083333 ], [ 77.636480143517758, 12.911669554585597 ], [ 77.636432777304918, 12.907152979789068 ], [ 77.641036939440909, 12.907106483099991 ] ] ] } },
{ "type": "Feature", "properties": { "zone_id": "Z12", "population": 1125, "waste_total_tons": 0.562, "waste_wet_tons": 0.343, "waste_dry_tons": 0.169, "waste_hazardous_tons": 0.028, "risk": "Medium", "total_buildings": 245, "collection_vehicle": "auto_rickshaw", "assigned_dwcc": "DWCC_05" }, "geometry": { "type": "Polygon", "coordinates": [ [ [ 77.641084388137983, 12.911623041083333 ], [ 77.641131854858344, 12.916139597337324 ], [ 77.636527527722592, 12.916186127653356 ], [ 77.636480143517758, 12.911669554585597 ], [ 77.641084388137983, 12.911623041083333 ] ] ] } },
{ "type": "Feature", "properties": { "zone_id": "Z13", "population": 34, "waste_total_tons": 0.017, "waste_wet_tons": 0.01, "waste_dry_tons": 0.005, "waste_hazardous_tons": 0.001, "risk": "Low", "total_buildings": 2, "collection_vehicle": "auto_rickshaw", "assigned_dwcc": "DWCC_02" }, "geometry": { "type": "Polygon", "coordinates": [ [ [ 77.641131854858344, 12.916139597337324 ], [ 77.641179339603553, 12.920656151861396 ], [ 77.636574929920954, 12.920702698991779 ], [ 77.636527527722592, 12.916186127653356 ], [ 77.641131854858344, 12.916139597337324 ] ] ] } },
{ "type": "Feature", "properties": { "zone_id": "Z15", "population": 692, "waste_total_tons": 0.346, "waste_wet_tons": 0.211, "waste_dry_tons": 0.104, "waste_hazardous_tons": 0.017, "risk": "Low", "total_buildings": 160, "collection_vehicle": "auto_rickshaw", "assigned_dwcc": "DWCC_06" }, "geometry": { "type": "Polygon", "coordinates": [ [ [ 77.645593570428488, 12.902543362633057 ], [ 77.645641083555148, 12.90705990550331 ], [ 77.641036939440909, 12.907106483099991 ], [ 77.640989508765614, 12.902589923387881 ], [ 77.645593570428488, 12.902543362633057 ] ] ] } },
{ "type": "Feature", "properties": { "zone_id": "Z16", "population": 2388, "waste_total_tons": 1.194, "waste_wet_tons": 0.728, "waste_dry_tons": 0.358, "waste_hazardous_tons": 0.06, "risk": "High", "total_buildings": 547, "collection_vehicle": "auto_rickshaw", "assigned_dwcc": "DWCC_06" }, "geometry": { "type": "Polygon", "coordinates": [ [ [ 77.645641083555148, 12.90705990550331 ], [ 77.64568861473488, 12.91157644664421 ], [ 77.641084388137983, 12.911623041083333 ], [ 77.641036939440909, 12.907106483099991 ], [ 77.645641083555148, 12.90705990550331 ] ] ] } },
{ "type": "Feature", "properties": { "zone_id": "Z17", "population": 1887, "waste_total_tons": 0.944, "waste_wet_tons": 0.576, "waste_dry_tons": 0.283, "waste_hazardous_tons": 0.047, "risk": "Medium", "total_buildings": 347, "collection_vehicle": "auto_rickshaw", "assigned_dwcc": "DWCC_03" }, "geometry": { "type": "Polygon", "coordinates": [ [ [ 77.64568861473488, 12.91157644664421 ], [ 77.645736163969232, 12.916092986055183 ], [ 77.641131854858344, 12.916139597337324 ], [ 77.641084388137983, 12.911623041083333 ], [ 77.64568861473488, 12.91157644664421 ] ] ] } },
{ "type": "Feature", "properties": { "zone_id": "Z18", "population": 1355, "waste_total_tons": 0.677, "waste_wet_tons": 0.413, "waste_dry_tons": 0.203, "waste_hazardous_tons": 0.034, "risk": "Medium", "total_buildings": 226, "collection_vehicle": "auto_rickshaw", "assigned_dwcc": "DWCC_03" }, "geometry": { "type": "Polygon", "coordinates": [ [ [ 77.645736163969232, 12.916092986055183 ], [ 77.645783731259755, 12.920609523735658 ], [ 77.641179339603553, 12.920656151861396 ], [ 77.641131854858344, 12.916139597337324 ], [ 77.645736163969232, 12.916092986055183 ] ] ] } },
{ "type": "Feature", "properties": { "zone_id": "Z19", "population": 139, "waste_total_tons": 0.07, "waste_wet_tons": 0.042, "waste_dry_tons": 0.021, "waste_hazardous_tons": 0.003, "risk": "Low", "total_buildings": 35, "collection_vehicle": "auto_rickshaw", "assigned_dwcc": "DWCC_03" }, "geometry": { "type": "Polygon", "coordinates": [ [ [ 77.645783731259755, 12.920609523735658 ], [ 77.645831316608025, 12.925126059685054 ], [ 77.641226842375175, 12.925172704654976 ], [ 77.641179339603553, 12.920656151861396 ], [ 77.645783731259755, 12.920609523735658 ] ] ] } },
{ "type": "Feature", "properties": { "zone_id": "Z20", "population": 100, "waste_total_tons": 0.05, "waste_wet_tons": 0.03, "waste_dry_tons": 0.015, "waste_hazardous_tons": 0.003, "risk": "Low", "total_buildings": 13, "collection_vehicle": "auto_rickshaw", "assigned_dwcc": "DWCC_07" }, "geometry": { "type": "Polygon", "coordinates": [ [ [ 77.650150036546208, 12.897980193272847 ], [ 77.65019761403984, 12.902496721001352 ], [ 77.645593570428488, 12.902543362633057 ], [ 77.645546075353352, 12.898026818034028 ], [ 77.650150036546208, 12.897980193272847 ] ] ] } },
{ "type": "Feature", "properties": { "zone_id": "Z21", "population": 1570, "waste_total_tons": 0.785, "waste_wet_tons": 0.479, "waste_dry_tons": 0.235, "waste_hazardous_tons": 0.039, "risk": "Medium", "total_buildings": 387, "collection_vehicle": "auto_rickshaw", "assigned_dwcc": "DWCC_07" }, "geometry": { "type": "Polygon", "coordinates": [ [ [ 77.65019761403984, 12.902496721001352 ], [ 77.650245209616301, 12.907013247000496 ], [ 77.645641083555148, 12.90705990550331 ], [ 77.645593570428488, 12.902543362633057 ], [ 77.65019761403984, 12.902496721001352 ] ] ] } },
{ "type": "Feature", "properties": { "zone_id": "Z22", "population": 2699, "waste_total_tons": 1.349, "waste_wet_tons": 0.823, "waste_dry_tons": 0.405, "waste_hazardous_tons": 0.067, "risk": "High", "total_buildings": 662, "collection_vehicle": "auto_rickshaw", "assigned_dwcc": "DWCC_06" }, "geometry": { "type": "Polygon", "coordinates": [ [ [ 77.650245209616301, 12.907013247000496 ], [ 77.650292823277155, 12.911529771269709 ], [ 77.64568861473488, 12.91157644664421 ], [ 77.645641083555148, 12.90705990550331 ], [ 77.650245209616301, 12.907013247000496 ] ] ] } },
{ "type": "Feature", "properties": { "zone_id": "Z23", "population": 2425, "waste_total_tons": 1.212, "waste_wet_tons": 0.74, "waste_dry_tons": 0.364, "waste_hazardous_tons": 0.061, "risk": "High", "total_buildings": 590, "collection_vehicle": "auto_rickshaw", "assigned_dwcc": "DWCC_04" }, "geometry": { "type": "Polygon", "coordinates": [ [ [ 77.650292823277155, 12.911529771269709 ], [ 77.650340455023951, 12.916046293808412 ], [ 77.645736163969232, 12.916092986055183 ], [ 77.64568861473488, 12.91157644664421 ], [ 77.650292823277155, 12.911529771269709 ] ] ] } },
{ "type": "Feature", "properties": { "zone_id": "Z24", "population": 2866, "waste_total_tons": 1.433, "waste_wet_tons": 0.874, "waste_dry_tons": 0.43, "waste_hazardous_tons": 0.072, "risk": "High", "total_buildings": 666, "collection_vehicle": "auto_rickshaw", "assigned_dwcc": "DWCC_03" }, "geometry": { "type": "Polygon", "coordinates": [ [ [ 77.650340455023951, 12.916046293808412 ], [ 77.650388104858237, 12.920562814616032 ], [ 77.645783731259755, 12.920609523735658 ], [ 77.645736163969232, 12.916092986055183 ], [ 77.650340455023951, 12.916046293808412 ] ] ] } },
{ "type": "Feature", "properties": { "zone_id": "Z25", "population": 1934, "waste_total_tons": 0.967, "waste_wet_tons": 0.59, "waste_dry_tons": 0.29, "waste_hazardous_tons": 0.048, "risk": "Medium", "total_buildings": 480, "collection_vehicle": "auto_rickshaw", "assigned_dwcc": "DWCC_03" }, "geometry": { "type": "Polygon", "coordinates": [ [ [ 77.650388104858237, 12.920562814616032 ], [ 77.650435772781577, 12.925079333691993 ], [ 77.645831316608025, 12.925126059685054 ], [ 77.645783731259755, 12.920609523735658 ], [ 77.650388104858237, 12.920562814616032 ] ] ] } },
{ "type": "Feature", "properties": { "zone_id": "Z26", "population": 1045, "waste_total_tons": 0.522, "waste_wet_tons": 0.319, "waste_dry_tons": 0.157, "waste_hazardous_tons": 0.026, "risk": "Medium", "total_buildings": 57, "collection_vehicle": "auto_rickshaw", "assigned_dwcc": "DWCC_07" }, "geometry": { "type": "Polygon", "coordinates": [ [ [ 77.654753979657798, 12.897933487665508 ], [ 77.654801639568362, 12.902449998494236 ], [ 77.65019761403984, 12.902496721001352 ], [ 77.650150036546208, 12.897980193272847 ], [ 77.654753979657798, 12.897933487665508 ] ] ] } },
{ "type": "Feature", "properties": { "zone_id": "Z27", "population": 643, "waste_total_tons": 0.322, "waste_wet_tons": 0.196, "waste_dry_tons": 0.096, "waste_hazardous_tons": 0.016, "risk": "Low", "total_buildings": 116, "collection_vehicle": "auto_rickshaw", "assigned_dwcc": "DWCC_07" }, "geometry": { "type": "Polygon", "coordinates": [ [ [ 77.654801639568362, 12.902449998494236 ], [ 77.65484931759309, 12.906966507593026 ], [ 77.650245209616301, 12.907013247000496 ], [ 77.65019761403984, 12.902496721001352 ], [ 77.654801639568362, 12.902449998494236 ] ] ] } },
{ "type": "Feature", "properties": { "zone_id": "Z28", "population": 1693, "waste_total_tons": 0.847, "waste_wet_tons": 0.516, "waste_dry_tons": 0.254, "waste_hazardous_tons": 0.042, "risk": "Medium", "total_buildings": 416, "collection_vehicle": "auto_rickshaw", "assigned_dwcc": "DWCC_07" }, "geometry": { "type": "Polygon", "coordinates": [ [ [ 77.65484931759309, 12.906966507593026 ], [ 77.654897013733503, 12.911483014961302 ], [ 77.650292823277155, 12.911529771269709 ], [ 77.650245209616301, 12.907013247000496 ], [ 77.65484931759309, 12.906966507593026 ] ] ] } },
{ "type": "Feature", "properties": { "zone_id": "Z29", "population": 3270, "waste_total_tons": 1.635, "waste_wet_tons": 0.997, "waste_dry_tons": 0.49, "waste_hazardous_tons": 0.082, "risk": "High", "total_buildings": 327, "collection_vehicle": "auto_rickshaw", "assigned_dwcc": "DWCC_04" }, "geometry": { "type": "Polygon", "coordinates": [ [ [ 77.654897013733503, 12.911483014961302 ], [ 77.654944727991179, 12.915999520598486 ], [ 77.650340455023951, 12.916046293808412 ], [ 77.650292823277155, 12.911529771269709 ], [ 77.654897013733503, 12.911483014961302 ] ] ] } },
{ "type": "Feature", "properties": { "zone_id": "Z30", "population": 3674, "waste_total_tons": 1.837, "waste_wet_tons": 1.121, "waste_dry_tons": 0.551, "waste_hazardous_tons": 0.092, "risk": "High", "total_buildings": 681, "collection_vehicle": "auto_rickshaw", "assigned_dwcc": "DWCC_04" }, "geometry": { "type": "Polygon", "coordinates": [ [ [ 77.654944727991179, 12.915999520598486 ], [ 77.654992460367666, 12.920516024504003 ], [ 77.650388104858237, 12.920562814616032 ], [ 77.650340455023951, 12.916046293808412 ], [ 77.654944727991179, 12.915999520598486 ] ] ] } },
{ "type": "Feature", "properties": { "zone_id": "Z31", "population": 427, "waste_total_tons": 0.213, "waste_wet_tons": 0.13, "waste_dry_tons": 0.064, "waste_hazardous_tons": 0.011, "risk": "Low", "total_buildings": 113, "collection_vehicle": "auto_rickshaw", "assigned_dwcc": "DWCC_04" }, "geometry": { "type": "Polygon", "coordinates": [ [ [ 77.654992460367666, 12.920516024504003 ], [ 77.655040210864541, 12.925032526677281 ], [ 77.650435772781577, 12.925079333691993 ], [ 77.650388104858237, 12.920562814616032 ], [ 77.654992460367666, 12.920516024504003 ] ] ] } },
{ "type": "Feature", "properties": { "zone_id": "Z32", "population": 272, "waste_total_tons": 0.136, "waste_wet_tons": 0.083, "waste_dry_tons": 0.041, "waste_hazardous_tons": 0.007, "risk": "Low", "total_buildings": 68, "collection_vehicle": "auto_rickshaw", "assigned_dwcc": "DWCC_07" }, "geometry": { "type": "Polygon", "coordinates": [ [ [ 77.659357904656773, 12.897886701213483 ], [ 77.659405646982734, 12.902403195113195 ], [ 77.654801639568362, 12.902449998494236 ], [ 77.654753979657798, 12.897933487665508 ], [ 77.659357904656773, 12.897886701213483 ] ] ] } },
{ "type": "Feature", "properties": { "zone_id": "Z38", "population": 914, "waste_total_tons": 0.457, "waste_wet_tons": 0.279, "waste_dry_tons": 0.137, "waste_hazardous_tons": 0.023, "risk": "Low", "total_buildings": 214, "collection_vehicle": "auto_rickshaw", "assigned_dwcc": "DWCC_08" }, "geometry": { "type": "Polygon", "coordinates": [ [ [ 77.664201116994079, 12.920422201308659 ], [ 77.664249032633322, 12.924938669588812 ], [ 77.659644630825554, 12.92498563864239 ], [ 77.65959679775672, 12.920469153401053 ], [ 77.664201116994079, 12.920422201308659 ] ] ] } },
{ "type": "Feature", "properties": { "zone_id": "Z39", "population": 67, "waste_total_tons": 0.034, "waste_wet_tons": 0.02, "waste_dry_tons": 0.01, "waste_hazardous_tons": 0.002, "risk": "Low", "total_buildings": 4, "collection_vehicle": "auto_rickshaw", "assigned_dwcc": "DWCC_08" }, "geometry": { "type": "Polygon", "coordinates": [ [ [ 77.664249032633322, 12.924938669588812 ], [ 77.664296966457144, 12.929455136134973 ], [ 77.659692482047646, 12.929502122150325 ], [ 77.659644630825554, 12.92498563864239 ], [ 77.664249032633322, 12.924938669588812 ] ] ] } },
{ "type": "Feature", "properties": { "zone_id": "Z40", "population": 938, "waste_total_tons": 0.469, "waste_wet_tons": 0.286, "waste_dry_tons": 0.141, "waste_hazardous_tons": 0.023, "risk": "Low", "total_buildings": 62, "collection_vehicle": "auto_rickshaw", "assigned_dwcc": "DWCC_08" }, "geometry": { "type": "Polygon", "coordinates": [ [ [ 77.668805418048436, 12.920375168228313 ], [ 77.668853416256511, 12.924891619518023 ], [ 77.664249032633322, 12.924938669588812 ], [ 77.664201116994079, 12.920422201308659 ], [ 77.668805418048436, 12.920375168228313 ] ] ] } },
{ "type": "Feature", "properties": { "zone_id": "Z41", "population": 1205, "waste_total_tons": 0.603, "waste_wet_tons": 0.368, "waste_dry_tons": 0.181, "waste_hazardous_tons": 0.03, "risk": "Medium", "total_buildings": 66, "collection_vehicle": "auto_rickshaw", "assigned_dwcc": "DWCC_08" }, "geometry": { "type": "Polygon", "coordinates": [ [ [ 77.668853416256511, 12.924891619518023 ], [ 77.668901432680485, 12.929408069073162 ], [ 77.664296966457144, 12.929455136134973 ], [ 77.664249032633322, 12.924938669588812 ], [ 77.668853416256511, 12.924891619518023 ] ] ] } },
{ "type": "Feature", "properties": { "zone_id": "Z42", "population": 204, "waste_total_tons": 0.102, "waste_wet_tons": 0.062, "waste_dry_tons": 0.031, "waste_hazardous_tons": 0.005, "risk": "Low", "total_buildings": 9, "collection_vehicle": "auto_rickshaw", "assigned_dwcc": "DWCC_08" }, "geometry": { "type": "Polygon", "coordinates": [ [ [ 77.668901432680485, 12.929408069073162 ], [ 77.668949467321951, 12.933924516893148 ], [ 77.664344918467094, 12.93397160094657 ], [ 77.664296966457144, 12.929455136134973 ], [ 77.668901432680485, 12.929408069073162 ] ] ] } }
]
}
